{
    "satellites": [
        {
            "name": "starlink336",
            "title": "Starlink-336 (G15-12)",
            "tle": [
                "1 67100C 25298AB  25362.76368056 -.01881500  00000+0 -18654-1 0  3622",
                "2 67100  69.9994 204.4061 0003681 276.7319 173.4248 15.67521614    10"
            ],
            "stdMag": 5,
            "noradId": "67100",
            "tleUrl": "http://celestrak.org/NORAD/elements/supplemental/sup-gp.php?FILE=starlink&FORMAT=tle",
            "launchDate": "2025-12-14T05:49:00.000Z",
            "active": true,
            "batch": [
                {
                    "noradId": "67100",
                    "tle": [
                        "1 67100C 25298AB  25362.76368056 -.01881500  00000+0 -18654-1 0  3622",
                        "2 67100  69.9994 204.4061 0003681 276.7319 173.4248 15.67521614    10"
                    ]
                },
                {
                    "noradId": "67099",
                    "tle": [
                        "1 67099C 25298AA  25362.75743056 -.02721900  00000+0 -36718-1 0  3624",
                        "2 67099  69.9995 204.4944 0003975 269.5218  85.0518 15.60418925    13"
                    ]
                },
                {
                    "noradId": "67101",
                    "tle": [
                        "1 67101C 25298AC  25362.75812500 -.01880700  00000+0 -18634-1 0  3629",
                        "2 67101  69.9995 204.4270 0003900 274.4557 140.5993 15.67536807    19"
                    ]
                },
                {
                    "noradId": "67098",
                    "tle": [
                        "1 67098C 25298Z   25362.75812500 -.01881800  00000+0 -18649-1 0  3622",
                        "2 67098  69.9995 204.4286 0003881 275.3302 137.8880 15.67532282    14"
                    ]
                },
                {
                    "noradId": "67097",
                    "tle": [
                        "1 67097C 25298Y   25362.75812500 -.01880900  00000+0 -18632-1 0  3623",
                        "2 67097  69.9995 204.4309 0003807 273.2134 137.9587 15.67541377    17"
                    ]
                },
                {
                    "noradId": "67096",
                    "tle": [
                        "1 67096C 25298X   25362.76090278 -.01881400  00000+0 -18643-1 0  3621",
                        "2 67096  69.9995 204.4259 0003898 274.7641 150.1212 15.67533122    10"
                    ]
                },
                {
                    "noradId": "67095",
                    "tle": [
                        "1 67095C 25298W   25362.76437500 -.01882100  00000+0 -18663-1 0  3623",
                        "2 67095  69.9995 204.4178 0003789 275.9311 166.6786 15.67517369    18"
                    ]
                },
                {
                    "noradId": "67094",
                    "tle": [
                        "1 67094C 25298V   25362.75743056 -.01882400  00000+0 -18643-1 0  3628",
                        "2 67094  69.9995 204.4401 0003881 274.6334 126.8175 15.67548165    18"
                    ]
                },
                {
                    "noradId": "67093",
                    "tle": [
                        "1 67093C 25298U   25362.76090278 -.01881800  00000+0 -18640-1 0  3629",
                        "2 67093  69.9995 204.4327 0003926 274.2045 144.7876 15.67543893    19"
                    ]
                },
                {
                    "noradId": "67092",
                    "tle": [
                        "1 67092C 25298T   25362.76645833 -.01882500  00000+0 -18660-1 0  3621",
                        "2 67092  69.9995 204.4197 0003786 274.8271 173.5530 15.67526391    15"
                    ]
                },
                {
                    "noradId": "67091",
                    "tle": [
                        "1 67091C 25298S   25362.76298611 -.01881200  00000+0 -18641-1 0  3623",
                        "2 67091  69.9995 204.4317 0003722 275.2797 151.6270 15.67535222    17"
                    ]
                },
                {
                    "noradId": "67090",
                    "tle": [
                        "1 67090C 25298R   25362.76298611 -.01882100  00000+0 -18643-1 0  3624",
                        "2 67090  69.9995 204.4339 0003736 274.9832 149.8917 15.67544885    13"
                    ]
                },
                {
                    "noradId": "67089",
                    "tle": [
                        "1 67089C 25298Q   25362.76090278 -.01882800  00000+0 -18645-1 0  3620",
                        "2 67089  69.9995 204.4423 0003859 274.9783 136.2565 15.67551523    12"
                    ]
                },
                {
                    "noradId": "67088",
                    "tle": [
                        "1 67088C 25298P   25362.75743056 -.01883100  00000+0 -18633-1 0  3628",
                        "2 67088  69.9995 204.4552 0003738 273.5657 116.0359 15.67573512    14"
                    ]
                },
                {
                    "noradId": "67087",
                    "tle": [
                        "1 67087C 25298N   25362.75881944 -.02734600  00000+0 -37041-1 0  3621",
                        "2 67087  69.9996 204.5225 0003994 269.0341  66.9157 15.60321862    17"
                    ]
                },
                {
                    "noradId": "67086",
                    "tle": [
                        "1 67086C 25298M   25362.75743056 -.01883100  00000+0 -18629-1 0  3621",
                        "2 67086  69.9995 204.4593 0003842 274.4334 111.2773 15.67577654    13"
                    ]
                },
                {
                    "noradId": "67085",
                    "tle": [
                        "1 67085C 25298L   25362.76298611 -.01881700  00000+0 -18623-1 0  3621",
                        "2 67085  69.9995 204.4465 0003880 275.6587 139.3323 15.67565613    19"
                    ]
                },
                {
                    "noradId": "67084",
                    "tle": [
                        "1 67084C 25298K   25362.76298611 -.01881400  00000+0 -18619-1 0  3622",
                        "2 67084  69.9995 204.4486 0003828 275.4868 137.5587 15.67567175    10"
                    ]
                },
                {
                    "noradId": "67083",
                    "tle": [
                        "1 67083C 25298J   25362.76368056 -.01881600  00000+0 -18620-1 0  3626",
                        "2 67083  69.9995 204.4491 0003876 275.2702 139.7319 15.67567759    18"
                    ]
                },
                {
                    "noradId": "67082",
                    "tle": [
                        "1 67082C 25298H   25362.76437500 -.01881100  00000+0 -18612-1 0  3622",
                        "2 67082  69.9995 204.4501 0003881 274.8298 142.0757 15.67571167    11"
                    ]
                },
                {
                    "noradId": "67081",
                    "tle": [
                        "1 67081C 25298G   25362.76020833 -.01882800  00000+0 -18613-1 0  3627",
                        "2 67081  69.9995 204.4638 0003842 274.5830 116.8200 15.67594383    14"
                    ]
                },
                {
                    "noradId": "67080",
                    "tle": [
                        "1 67080C 25298F   25362.76229167 -.01881800  00000+0 -18608-1 0  3620",
                        "2 67080  69.9994 204.4601 0003830 274.9691 126.2464 15.67587210    16"
                    ]
                },
                {
                    "noradId": "67079",
                    "tle": [
                        "1 67079C 25298E   25362.75604167 -.02630900  00000+0 -29117-1 0  3625",
                        "2 67079  69.9995 204.4875 0004126 270.9948  86.8592 15.65518579    11"
                    ]
                },
                {
                    "noradId": "67077",
                    "tle": [
                        "1 67077C 25298C   25362.76368056 -.01882400  00000+0 -18605-1 0  3621",
                        "2 67077  69.9995 204.4635 0003858 275.0887 127.9821 15.67598532    13"
                    ]
                },
                {
                    "noradId": "67078",
                    "tle": [
                        "1 67078C 25298D   25362.75673611 -.01882400  00000+0 -18583-1 0  3622",
                        "2 67078  69.9995 204.4808 0003958 273.3889  92.3623 15.67628869    12"
                    ]
                },
                {
                    "noradId": "67075",
                    "tle": [
                        "1 67075C 25298A   25362.75743056 -.01883200  00000+0 -18586-1 0  3622",
                        "2 67075  69.9995 204.4861 0003980 273.0305  90.7684 15.67635824    11"
                    ]
                },
                {
                    "noradId": "67076",
                    "tle": [
                        "1 67076C 25298B   25362.76020833 -.01883500  00000+0 -18598-1 0  3621",
                        "2 67076  69.9995 204.4758 0003907 274.0458 107.3524 15.67624464    12"
                    ]
                }
            ]
        }
    ],
    "config": {}
}